{
  "type": "FeatureCollection",
  "features": [
    {
      "type": "Feature",
      "properties": {
        "norad_id": 66603,
        "name": "STARLINK-36048",
        "group": "last-30-days",
        "lat": -34.6954919935644,
        "lon": 38.281468457543525,
        "alt_km": 443.1471725021602,
        "timestamp": "2025-12-16T13:52:36.286738+00:00",
        "meta_object_name": "STARLINK-36048",
        "meta_object_id": "2025-270R",
        "meta_epoch": "2025-12-15T22:00:01.999584",
        "meta_mean_motion": 15.44642912,
        "meta_eccentricity": 0.00011241,
        "meta_inclination": 42.9994,
        "meta_ra_of_asc_node": 174.1242,
        "meta_arg_of_pericenter": 286.1135,
        "meta_mean_anomaly": 231.1016,
        "meta_ephemeris_type": 0,
        "meta_classification_type": "U",
        "meta_norad_cat_id": 66603,
        "meta_element_set_no": 999,
        "meta_rev_at_epoch": 481,
        "meta_bstar": -0.047799163,
        "meta_mean_motion_dot": -0.02029197,
        "meta_mean_motion_ddot": 0,
        "tle_line1": "1 66603U 25270R   25349.91668981 -.02029197  00000+0 -47799-1 0  9996",
        "tle_line2": "2 66603  42.9994 174.1242 0001124 286.1135 231.1016 15.44642912  4810"
      },
      "geometry": {
        "type": "Point",
        "coordinates": [
          38.281468457543525,
          -34.6954919935644
        ]
      }
    },
    {
      "type": "Feature",
      "properties": {
        "norad_id": 66604,
        "name": "STARLINK-35977",
        "group": "last-30-days",
        "lat": -42.975997087608675,
        "lon": 80.96097160607852,
        "alt_km": 417.0748168776454,
        "timestamp": "2025-12-16T13:52:36.286748+00:00",
        "meta_object_name": "STARLINK-35977",
        "meta_object_id": "2025-270S",
        "meta_epoch": "2025-12-15T05:47:51.952128",
        "meta_mean_motion": 15.50594552,
        "meta_eccentricity": 0.00014478,
        "meta_inclination": 42.9989,
        "meta_ra_of_asc_node": 178.0309,
        "meta_arg_of_pericenter": 284.8784,
        "meta_mean_anomaly": 75.1916,
        "meta_ephemeris_type": 0,
        "meta_classification_type": "U",
        "meta_norad_cat_id": 66604,
        "meta_element_set_no": 999,
        "meta_rev_at_epoch": 473,
        "meta_bstar": 0.00084362823,
        "meta_mean_motion_dot": 0.00049491,
        "meta_mean_motion_ddot": 0,
        "tle_line1": "1 66604U 25270S   25349.24157352  .00049491  00000+0  84363-3 0  9993",
        "tle_line2": "2 66604  42.9989 178.0309 0001447 284.8784  75.1916 15.50594552  4734"
      },
      "geometry": {
        "type": "Point",
        "coordinates": [
          80.96097160607852,
          -42.975997087608675
        ]
      }
    },
    {
      "type": "Feature",
      "properties": {
        "norad_id": 66605,
        "name": "STARLINK-36052",
        "group": "last-30-days",
        "lat": -42.93251102715838,
        "lon": 83.32260417031928,
        "alt_km": 416.6266174899547,
        "timestamp": "2025-12-16T13:52:36.286758+00:00",
        "meta_object_name": "STARLINK-36052",
        "meta_object_id": "2025-270T",
        "meta_epoch": "2025-12-15T21:14:56.294592",
        "meta_mean_motion": 15.5060937,
        "meta_eccentricity": 0.00021568,
        "meta_inclination": 42.9952,
        "meta_ra_of_asc_node": 174.2621,
        "meta_arg_of_pericenter": 258.8815,
        "meta_mean_anomaly": 101.1803,
        "meta_ephemeris_type": 0,
        "meta_classification_type": "U",
        "meta_norad_cat_id": 66605,
        "meta_element_set_no": 999,
        "meta_rev_at_epoch": 483,
        "meta_bstar": 0.0010205444,
        "meta_mean_motion_dot": 0.00060057,
        "meta_mean_motion_ddot": 0,
        "tle_line1": "1 66605U 25270T   25349.88537378  .00060057  00000+0  10205-2 0  9998",
        "tle_line2": "2 66605  42.9952 174.2621 0002156 258.8815 101.1803 15.50609370  4835"
      },
      "geometry": {
        "type": "Point",
        "coordinates": [
          83.32260417031928,
          -42.93251102715838
        ]
      }
    },
    {
      "type": "Feature",
      "properties": {
        "norad_id": 66606,
        "name": "STARLINK-36063",
        "group": "last-30-days",
        "lat": -42.68052506436904,
        "lon": 88.45466473364831,
        "alt_km": 416.9514332137487,
        "timestamp": "2025-12-16T13:52:36.286770+00:00",
        "meta_object_name": "STARLINK-36063",
        "meta_object_id": "2025-270U",
        "meta_epoch": "2025-12-15T21:13:57.114912",
        "meta_mean_motion": 15.5058995,
        "meta_eccentricity": 0.00016969,
        "meta_inclination": 42.9987,
        "meta_ra_of_asc_node": 174.2546,
        "meta_arg_of_pericenter": 274.1989,
        "meta_mean_anomaly": 85.8678,
        "meta_ephemeris_type": 0,
        "meta_classification_type": "U",
        "meta_norad_cat_id": 66606,
        "meta_element_set_no": 999,
        "meta_rev_at_epoch": 483,
        "meta_bstar": 0.0011009121,
        "meta_mean_motion_dot": 0.00064806,
        "meta_mean_motion_ddot": 0,
        "tle_line1": "1 66606U 25270U   25349.88468883  .00064806  00000+0  11009-2 0  9992",
        "tle_line2": "2 66606  42.9987 174.2546 0001696 274.1989  85.8678 15.50589950  4830"
      },
      "geometry": {
        "type": "Point",
        "coordinates": [
          88.45466473364831,
          -42.68052506436904
        ]
      }
    },
    {
      "type": "Feature",
      "properties": {
        "norad_id": 66607,
        "name": "STARLINK-35993",
        "group": "last-30-days",
        "lat": -42.83717226670368,
        "lon": 85.888936400645,
        "alt_km": 417.0078187022518,
        "timestamp": "2025-12-16T13:52:36.286780+00:00",
        "meta_object_name": "STARLINK-35993",
        "meta_object_id": "2025-270V",
        "meta_epoch": "2025-12-15T21:14:26.729376",
        "meta_mean_motion": 15.50594365,
        "meta_eccentricity": 0.00015824,
        "meta_inclination": 42.9986,
        "meta_ra_of_asc_node": 174.2577,
        "meta_arg_of_pericenter": 270.0031,
        "meta_mean_anomaly": 90.0648,
        "meta_ephemeris_type": 0,
        "meta_classification_type": "U",
        "meta_norad_cat_id": 66607,
        "meta_element_set_no": 999,
        "meta_rev_at_epoch": 473,
        "meta_bstar": 0.0011567667,
        "meta_mean_motion_dot": 0.00068151,
        "meta_mean_motion_ddot": 0,
        "tle_line1": "1 66607U 25270V   25349.88503159  .00068151  00000+0  11568-2 0  9996",
        "tle_line2": "2 66607  42.9986 174.2577 0001582 270.0031  90.0648 15.50594365  4731"
      },
      "geometry": {
        "type": "Point",
        "coordinates": [
          85.888936400645,
          -42.83717226670368
        ]
      }
    },
    {
      "type": "Feature",
      "properties": {
        "norad_id": 66608,
        "name": "STARLINK-36036",
        "group": "last-30-days",
        "lat": -42.46407302234065,
        "lon": 91.0322797880232,
        "alt_km": 417.0355633613617,
        "timestamp": "2025-12-16T13:52:36.286793+00:00",
        "meta_object_name": "STARLINK-36036",
        "meta_object_id": "2025-270W",
        "meta_epoch": "2025-12-15T21:13:27.510816",
        "meta_mean_motion": 15.50590211,
        "meta_eccentricity": 0.00015609,
        "meta_inclination": 42.9987,
        "meta_ra_of_asc_node": 174.252,
        "meta_arg_of_pericenter": 273.3219,
        "meta_mean_anomaly": 86.7462,
        "meta_ephemeris_type": 0,
        "meta_classification_type": "U",
        "meta_norad_cat_id": 66608,
        "meta_element_set_no": 999,
        "meta_rev_at_epoch": 467,
        "meta_bstar": 0.0010893309,
        "meta_mean_motion_dot": 0.00064115,
        "meta_mean_motion_ddot": 0,
        "tle_line1": "1 66608U 25270W   25349.88434619  .00064115  00000+0  10893-2 0  9997",
        "tle_line2": "2 66608  42.9987 174.2520 0001560 273.3219  86.7462 15.50590211  4676"
      },
      "geometry": {
        "type": "Point",
        "coordinates": [
          91.0322797880232,
          -42.46407302234065
        ]
      }
    },
    {
      "type": "Feature",
      "properties": {
        "norad_id": 66609,
        "name": "STARLINK-36034",
        "group": "last-30-days",
        "lat": -42.18914960178266,
        "lon": 93.59517610381808,
        "alt_km": 417.01641959950757,
        "timestamp": "2025-12-16T13:52:36.286803+00:00",
        "meta_object_name": "STARLINK-36034",
        "meta_object_id": "2025-270X",
        "meta_epoch": "2025-12-15T21:12:57.914496",
        "meta_mean_motion": 15.50590248,
        "meta_eccentricity": 0.00015567,
        "meta_inclination": 42.9984,
        "meta_ra_of_asc_node": 174.2494,
        "meta_arg_of_pericenter": 272.2443,
        "meta_mean_anomaly": 87.8239,
        "meta_ephemeris_type": 0,
        "meta_classification_type": "U",
        "meta_norad_cat_id": 66609,
        "meta_element_set_no": 999,
        "meta_rev_at_epoch": 467,
        "meta_bstar": 0.001140699,
        "meta_mean_motion_dot": 0.00067181,
        "meta_mean_motion_ddot": 0,
        "tle_line1": "1 66609U 25270X   25349.88400364  .00067181  00000+0  11407-2 0  9996",
        "tle_line2": "2 66609  42.9984 174.2494 0001556 272.2443  87.8239 15.50590248  4670"
      },
      "geometry": {
        "type": "Point",
        "coordinates": [
          93.59517610381808,
          -42.18914960178266
        ]
      }
    }
  ]
}